[{"OBJECT_NAME":"ABS-4 (MOBISAT-1)","OBJECT_ID":"2004-007A","EPOCH":"2026-03-31T23:30:30.862368","MEAN_MOTION":1.00272691,"ECCENTRICITY":0.000543,"INCLINATION":5.8469,"RA_OF_ASC_NODE":72.9321,"ARG_OF_PERICENTER":300.8067,"MEAN_ANOMALY":229.1856,"EPHEMERIS_TYPE":0,"CLASSIFICATION_TYPE":"U","NORAD_CAT_ID":28184,"ELEMENT_SET_NO":999,"REV_AT_EPOCH":5156,"BSTAR":0,"MEAN_MOTION_DOT":3.3e-7,"MEAN_MOTION_DDOT":0},{"OBJECT_NAME":"EUTELSAT 139 WEST A","OBJECT_ID":"2004-008A","EPOCH":"2026-03-30T02:47:36.981600","MEAN_MOTION":1.00833594,"ECCENTRICITY":0.0003571,"INCLINATION":5.6289,"RA_OF_ASC_NODE":72.937,"ARG_OF_PERICENTER":25.0284,"MEAN_ANOMALY":145.9143,"EPHEMERIS_TYPE":0,"CLASSIFICATION_TYPE":"U","NORAD_CAT_ID":28187,"ELEMENT_SET_NO":999,"REV_AT_EPOCH":8056,"BSTAR":0,"MEAN_MOTION_DOT":1.24e-6,"MEAN_MOTION_DDOT":0},{"OBJECT_NAME":"NAVSTAR 54 (USA 177)","OBJECT_ID":"2004-009A","EPOCH":"2026-03-31T14:45:46.977120","MEAN_MOTION":2.00557212,"ECCENTRICITY":0.0112318,"INCLINATION":54.8949,"RA_OF_ASC_NODE":278.8194,"ARG_OF_PERICENTER":169.8815,"MEAN_ANOMALY":194.1241,"EPHEMERIS_TYPE":0,"CLASSIFICATION_TYPE":"U","NORAD_CAT_ID":28190,"ELEMENT_SET_NO":999,"REV_AT_EPOCH":16139,"BSTAR":0,"MEAN_MOTION_DOT":-3.3e-7,"MEAN_MOTION_DDOT":0},{"OBJECT_NAME":"SHIYAN-1 (SY-1)","OBJECT_ID":"2004-012A","EPOCH":"2026-04-01T03:34:16.890240","MEAN_MOTION":15.31745377,"ECCENTRICITY":0.0004512,"INCLINATION":97.8735,"RA_OF_ASC_NODE":164.3248,"ARG_OF_PERICENTER":292.9835,"MEAN_ANOMALY":67.0929,"EPHEMERIS_TYPE":0,"CLASSIFICATION_TYPE":"U","NORAD_CAT_ID":28220,"ELEMENT_SET_NO":999,"REV_AT_EPOCH":19929,"BSTAR":0.00060877,"MEAN_MOTION_DOT":0.00018606,"MEAN_MOTION_DDOT":0},{"OBJECT_NAME":"AMC-11","OBJECT_ID":"2004-017A","EPOCH":"2026-04-01T04:53:38.434848","MEAN_MOTION":1.00272484,"ECCENTRICITY":0.0003213,"INCLINATION":0.1128,"RA_OF_ASC_NODE":79.9619,"ARG_OF_PERICENTER":296.105,"MEAN_ANOMALY":135.7988,"EPHEMERIS_TYPE":0,"CLASSIFICATION_TYPE":"U","NORAD_CAT_ID":28252,"ELEMENT_SET_NO":999,"REV_AT_EPOCH":8009,"BSTAR":0,"MEAN_MOTION_DOT":-6.0e-7,"MEAN_MOTION_DDOT":0},{"OBJECT_NAME":"INTELSAT 10-02","OBJECT_ID":"2004-022A","EPOCH":"2026-03-31T21:30:12.399840","MEAN_MOTION":1.00269421,"ECCENTRICITY":0.0001873,"INCLINATION":0.0438,"RA_OF_ASC_NODE":39.8753,"ARG_OF_PERICENTER":33.1604,"MEAN_ANOMALY":77.7447,"EPHEMERIS_TYPE":0,"CLASSIFICATION_TYPE":"U","NORAD_CAT_ID":28358,"ELEMENT_SET_NO":999,"REV_AT_EPOCH":7978,"BSTAR":0,"MEAN_MOTION_DOT":-2.3e-7,"MEAN_MOTION_DDOT":0},{"OBJECT_NAME":"NAVSTAR 55 (USA 178)","OBJECT_ID":"2004-023A","EPOCH":"2026-03-31T14:42:00.885600","MEAN_MOTION":2.00553206,"ECCENTRICITY":0.0161917,"INCLINATION":54.8106,"RA_OF_ASC_NODE":89.8431,"ARG_OF_PERICENTER":299.4269,"MEAN_ANOMALY":243.2406,"EPHEMERIS_TYPE":0,"CLASSIFICATION_TYPE":"U","NORAD_CAT_ID":28361,"ELEMENT_SET_NO":999,"REV_AT_EPOCH":15948,"BSTAR":0,"MEAN_MOTION_DOT":2.3e-7,"MEAN_MOTION_DDOT":0},{"OBJECT_NAME":"APRIZESAT 2","OBJECT_ID":"2004-025A","EPOCH":"2026-04-01T04:33:26.893440","MEAN_MOTION":14.38004779,"ECCENTRICITY":0.0106745,"INCLINATION":98.0944,"RA_OF_ASC_NODE":261.5568,"ARG_OF_PERICENTER":122.2207,"MEAN_ANOMALY":238.9384,"EPHEMERIS_TYPE":0,"CLASSIFICATION_TYPE":"U","NORAD_CAT_ID":28366,"ELEMENT_SET_NO":999,"REV_AT_EPOCH":14057,"BSTAR":0.00010902,"MEAN_MOTION_DOT":3.11e-6,"MEAN_MOTION_DDOT":0},{"OBJECT_NAME":"SAUDICOMSAT 2","OBJECT_ID":"2004-025E","EPOCH":"2026-03-31T23:23:39.062688","MEAN_MOTION":14.49928067,"ECCENTRICITY":0.005645,"INCLINATION":98.6679,"RA_OF_ASC_NODE":101.0288,"ARG_OF_PERICENTER":132.592,"MEAN_ANOMALY":228.0056,"EPHEMERIS_TYPE":0,"CLASSIFICATION_TYPE":"U","NORAD_CAT_ID":28370,"ELEMENT_SET_NO":999,"REV_AT_EPOCH":14891,"BSTAR":0.00013022,"MEAN_MOTION_DOT":4.65e-6,"MEAN_MOTION_DDOT":0},{"OBJECT_NAME":"SAUDISAT 2","OBJECT_ID":"2004-025F","EPOCH":"2026-03-31T22:59:59.418240","MEAN_MOTION":14.56634422,"ECCENTRICITY":0.002486,"INCLINATION":98.5508,"RA_OF_ASC_NODE":88.95,"ARG_OF_PERICENTER":171.2781,"MEAN_ANOMALY":188.8853,"EPHEMERIS_TYPE":0,"CLASSIFICATION_TYPE":"U","NORAD_CAT_ID":28371,"ELEMENT_SET_NO":999,"REV_AT_EPOCH":15450,"BSTAR":0.00010535,"MEAN_MOTION_DOT":4.22e-6,"MEAN_MOTION_DDOT":0},{"OBJECT_NAME":"AURA","OBJECT_ID":"2004-026A","EPOCH":"2026-04-01T03:47:30.760224","MEAN_MOTION":14.61201235,"ECCENTRICITY":0.0001367,"INCLINATION":98.3348,"RA_OF_ASC_NODE":47.0126,"ARG_OF_PERICENTER":94.4475,"MEAN_ANOMALY":265.6882,"EPHEMERIS_TYPE":0,"CLASSIFICATION_TYPE":"U","NORAD_CAT_ID":28376,"ELEMENT_SET_NO":999,"REV_AT_EPOCH":15496,"BSTAR":0.00028017,"MEAN_MOTION_DOT":1.332e-5,"MEAN_MOTION_DDOT":0},{"OBJECT_NAME":"ANIK F2","OBJECT_ID":"2004-027A","EPOCH":"2026-04-01T05:08:45.998592","MEAN_MOTION":1.00272181,"ECCENTRICITY":0.0003814,"INCLINATION":3.0868,"RA_OF_ASC_NODE":80.4498,"ARG_OF_PERICENTER":319.5284,"MEAN_ANOMALY":115.6753,"EPHEMERIS_TYPE":0,"CLASSIFICATION_TYPE":"U","NORAD_CAT_ID":28378,"ELEMENT_SET_NO":999,"REV_AT_EPOCH":4049,"BSTAR":0,"MEAN_MOTION_DOT":-5.8e-7,"MEAN_MOTION_DDOT":0},{"OBJECT_NAME":"COSMOS 2407","OBJECT_ID":"2004-028A","EPOCH":"2026-04-01T05:25:57.207648","MEAN_MOTION":13.76327704,"ECCENTRICITY":0.0040667,"INCLINATION":82.959,"RA_OF_ASC_NODE":131.8398,"ARG_OF_PERICENTER":107.1612,"MEAN_ANOMALY":324.4743,"EPHEMERIS_TYPE":0,"CLASSIFICATION_TYPE":"U","NORAD_CAT_ID":28380,"ELEMENT_SET_NO":999,"REV_AT_EPOCH":8929,"BSTAR":7.2592e-5,"MEAN_MOTION_DOT":8.7e-7,"MEAN_MOTION_DDOT":0},{"OBJECT_NAME":"SHIJIAN-6 01A (SJ-6 01A)","OBJECT_ID":"2004-035A","EPOCH":"2026-04-01T01:53:38.957568","MEAN_MOTION":15.16863489,"ECCENTRICITY":0.000753,"INCLINATION":97.5945,"RA_OF_ASC_NODE":118.0155,"ARG_OF_PERICENTER":53.749,"MEAN_ANOMALY":306.4438,"EPHEMERIS_TYPE":0,"CLASSIFICATION_TYPE":"U","NORAD_CAT_ID":28413,"ELEMENT_SET_NO":999,"REV_AT_EPOCH":17577,"BSTAR":0.00058404,"MEAN_MOTION_DOT":0.00011444,"MEAN_MOTION_DDOT":0},{"OBJECT_NAME":"SHIJIAN-6 01B (SJ-6 01B)","OBJECT_ID":"2004-035B","EPOCH":"2026-04-01T04:18:48.396384","MEAN_MOTION":15.05783399,"ECCENTRICITY":0.0006169,"INCLINATION":97.6117,"RA_OF_ASC_NODE":110.0442,"ARG_OF_PERICENTER":56.6498,"MEAN_ANOMALY":303.5318,"EPHEMERIS_TYPE":0,"CLASSIFICATION_TYPE":"U","NORAD_CAT_ID":28414,"ELEMENT_SET_NO":999,"REV_AT_EPOCH":17523,"BSTAR":0.00020702,"MEAN_MOTION_DOT":2.939e-5,"MEAN_MOTION_DDOT":0}