ABS-4 (MOBISAT-1)       
1 28184U 04007A   26090.97952387  .00000033  00000+0  00000+0 0  9995
2 28184   5.8469  72.9321 0005430 300.8067 229.1856  1.00272691 51565
EUTELSAT 139 WEST A     
1 28187U 04008A   26089.11640025  .00000124  00000+0  00000+0 0  9997
2 28187   5.6289  72.9370 0003571  25.0284 145.9143  1.00833594 80562
NAVSTAR 54 (USA 177)    
1 28190U 04009A   26090.61512705 -.00000033  00000+0  00000+0 0  9992
2 28190  54.8949 278.8194 0112317 169.8815 194.1241  2.00557212161399
SHIYAN-1 (SY-1)         
1 28220U 04012A   26091.14880660  .00018606  00000+0  60877-3 0  9993
2 28220  97.8735 164.3248 0004512 292.9835  67.0929 15.31745377199299
AMC-11                  
1 28252U 04017A   26091.20391707 -.00000060  00000+0  00000+0 0  9993
2 28252   0.1128  79.9619 0003213 296.1050 135.7988  1.00272484 80092
INTELSAT 10-02          
1 28358U 04022A   26090.89597686 -.00000023  00000+0  00000+0 0  9993
2 28358   0.0438  39.8753 0001872  33.1604  77.7447  1.00269421 79785
NAVSTAR 55 (USA 178)    
1 28361U 04023A   26090.61251025  .00000023  00000+0  00000+0 0  9991
2 28361  54.8106  89.8431 0161917 299.4269 243.2406  2.00553206159486
APRIZESAT 2             
1 28366U 04025A   26091.18989460  .00000311  00000+0  10902-3 0  9998
2 28366  98.0944 261.5568 0106745 122.2207 238.9384 14.38004779140570
SAUDICOMSAT 2           
1 28370U 04025E   26090.97475767  .00000465  00000+0  13022-3 0  9995
2 28370  98.6679 101.0288 0056450 132.5920 228.0056 14.49928067148915
SAUDISAT 2              
1 28371U 04025F   26090.95832660  .00000422  00000+0  10535-3 0  9992
2 28371  98.5508  88.9500 0024860 171.2781 188.8853 14.56634422154508
AURA                    
1 28376U 04026A   26091.15799491  .00001332  00000+0  28017-3 0  9990
2 28376  98.3348  47.0126 0001367  94.4475 265.6882 14.61201235154960
ANIK F2                 
1 28378U 04027A   26091.21442128 -.00000058  00000+0  00000+0 0  9995
2 28378   3.0868  80.4498 0003814 319.5284 115.6753  1.00272181 40493
COSMOS 2407             
1 28380U 04028A   26091.22635657  .00000087  00000+0  72592-4 0  9992
2 28380  82.9590 131.8398 0040667 107.1612 324.4743 13.76327704 89295
SHIJIAN-6 01A (SJ-6 01A)
1 28413U 04035A   26091.07892312  .00011444  00000+0  58404-3 0  9997
2 28413  97.5945 118.0155 0007530  53.7490 306.4438 15.16863489175779
SHIJIAN-6 01B (SJ-6 01B)
1 28414U 04035B   26091.17972681  .00002939  00000+0  20702-3 0  9996
2 28414  97.6117 110.0442 0006169  56.6498 303.5318 15.05783399175235
